EXPRESS-AM7             
1 40505U 15012A   26087.83787891  .00000131  00000+0  00000+0 0  9990
2 40505   0.0188 111.9953 0003016 239.6999 176.1656  1.00273034 40207
