{
  "norad_id": 40505,
  "name": "EXPRESS-AM7",
  "history": [
    {
      "epoch": "2026-03-28T20:06:32.737824Z",
      "apogee_km": 35798.96286727492,
      "perigee_km": 35773.526782295296,
      "latitude_deg": 0.010999212079311472,
      "longitude_deg": 39.997623202734864,
      "height_km": 35798.47814438041,
      "semi_major_axis_km": 42164.38182478511,
      "eccentricity": 0.00030163,
      "inclination_deg": 0.0188,
      "raan_deg": 111.9953,
      "arg_perigee_deg": 239.6999,
      "mean_anomaly_deg": 176.1656,
      "mean_motion_rev_day": 1.00273034
    }
  ]
}